NORAD_CAT_ID,OBJECT_NAME,OBJECT_TYPE,EPOCH,MEAN_MOTION,ECCENTRICITY,INCLINATION,RA_OF_ASC_NODE,ARG_OF_PERICENTER,MEAN_ANOMALY,BSTAR,MEAN_MOTION_DOT,MEAN_MOTION_DDOT,TLE_LINE0,TLE_LINE1,TLE_LINE2,SEMIMAJOR_AXIS,PERIOD,APOGEE,PERIGEE,DECAYED
49434.0,STARLINK-3134,PAYLOAD,2024-08-12 13:49:36,15.08847344,0.0001558,53.2161,286.5729,102.6557,257.4609,4.0373e-05,3.55e-06,0.0,0 STARLINK-3134,1 49434U 21104AC  24225.57611921  .00000355  00000-0  40373-4 0  9993,2 49434  53.2161 286.5729 0001558 102.6557 257.4609 15.08847344153048,6917.858,95.437,540.801,538.645,0.0
49434.0,STARLINK-3134,PAYLOAD,2024-08-12 15:24:59,15.08854562,0.0001265,53.2165,286.2795,85.0321,275.0815,0.00017011,2.421e-05,0.0,0 STARLINK-3134,1 49434U 21104AC  24225.64235543  .00002421  00000-0  17011-3 0  9991,2 49434  53.2165 286.2795 0001265  85.0321 275.0815 15.08854562153056,6917.836,95.437,540.576,538.826,0.0
49434.0,STARLINK-3134,PAYLOAD,2024-08-13 04:08:05,15.08830936,0.0002196,53.2119,283.8939,108.7188,251.4043,-0.00024102,-4.121e-05,0.0,0 STARLINK-3134,1 49434U 21104AC  24226.17228518 -.00004121  00000-0 -24102-3 0  9994,2 49434  53.2119 283.8939 0002196 108.7188 251.4043 15.08830936153135,6917.908,95.438,541.292,538.254,0.0
49434.0,STARLINK-3134,PAYLOAD,2024-08-13 10:29:38,15.08809322,0.0001148,53.2146,282.7042,88.1702,271.9421,-0.00061282,-0.00010019,0.0,0 STARLINK-3134,1 49434U 21104AC  24226.43725435 -.00010019  00000-0 -61282-3 0  9996,2 49434  53.2146 282.7042 0001148  88.1702 271.9421 15.08809322153173,6917.974,95.439,540.633,539.045,0.0
49434.0,STARLINK-3134,PAYLOAD,2024-08-14 10:20:26,15.08834865,0.0001198,53.2162,278.2468,76.6215,283.4911,0.00097386,0.00015243,0.0,0 STARLINK-3134,1 49434U 21104AC  24227.43086688  .00015243  00000-0  97386-3 0  9993,2 49434  53.2162 278.2468 0001198  76.6215 283.4911 15.08834865153328,6917.896,95.438,540.59,538.932,0.0
49434.0,STARLINK-3134,PAYLOAD,2024-08-14 19:52:45,15.08853603,0.0001109,53.2154,276.4599,64.7385,295.3722,0.0010637,0.00016688,0.0,0 STARLINK-3134,1 49434U 21104AC  24227.82830404  .00016688  00000-0  10637-2 0  9996,2 49434  53.2154 276.4599 0001109  64.7385 295.3722 15.08853603153381,6917.839,95.437,540.471,538.937,0.0
49434.0,STARLINK-3134,PAYLOAD,2024-08-15 10:11:13,15.08865478,0.0001327,53.2165,273.7881,77.9924,282.1217,0.00089566,0.00014005,0.0,0 STARLINK-3134,1 49434U 21104AC  24228.42445863  .00014005  00000-0  89566-3 0  9993,2 49434  53.2165 273.7881 0001327  77.9924 282.1217 15.08865478153470,6917.803,95.436,540.586,538.75,0.0
49434.0,STARLINK-3134,PAYLOAD,2024-08-15 19:43:31,15.08872088,0.0001245,53.2158,272.0035,78.1217,281.9915,0.00073494,0.00011438,0.0,0 STARLINK-3134,1 49434U 21104AC  24228.82189120  .00011438  00000-0  73494-3 0  9998,2 49434  53.2158 272.0035 0001245  78.1217 281.9915 15.08872088153536,6917.782,95.436,540.509,538.786,0.0
49434.0,STARLINK-3134,PAYLOAD,2024-08-16 08:26:36,15.08850427,0.0001101,53.2152,269.6249,79.6978,280.4138,3.2003e-05,2.22e-06,0.0,0 STARLINK-3134,1 49434U 21104AC  24229.35181217  .00000222  00000-0  32003-4 0  9997,2 49434  53.2152 269.6249 0001101  79.6978 280.4138 15.08850427153613,6917.849,95.437,540.475,538.952,0.0
49434.0,STARLINK-3134,PAYLOAD,2024-08-17 11:28:10,15.08839907,0.0001235,53.2146,264.5684,79.3156,280.7976,-7.1483e-05,-1.425e-05,0.0,0 STARLINK-3134,1 49434U 21104AC  24230.47789446 -.00001425  00000-0 -71483-4 0  9993,2 49434  53.2146 264.5684 0001235  79.3156 280.7976 15.08839907153787,6917.881,95.438,540.6,538.891,0.0
49434.0,STARLINK-3134,PAYLOAD,2024-08-18 12:54:19,15.08850903,0.0001242,53.2145,259.8096,87.1928,272.9206,0.00033855,5.106e-05,0.0,0 STARLINK-3134,1 49434U 21104AC  24231.53773135  .00005106  00000-0  33855-3 0  9997,2 49434  53.2145 259.8096 0001242  87.1928 272.9206 15.08850903153948,6917.847,95.437,540.571,538.853,0.0
49434.0,STARLINK-3134,PAYLOAD,2024-08-18 22:26:39,15.08844329,0.0001342,53.2142,258.026,86.9877,273.1269,0.00026361,3.91e-05,0.0,0 STARLINK-3134,1 49434U 21104AC  24231.93517379  .00003910  00000-0  26361-3 0  9992,2 49434  53.2142 258.0260 0001342  86.9877 273.1269 15.08844329154005,6917.867,95.437,540.661,538.804,0.0
49434.0,STARLINK-3134,PAYLOAD,2024-08-19 01:37:25,15.08845439,0.0001348,53.2141,257.4312,86.7501,273.3645,0.00025931,3.842e-05,0.0,0 STARLINK-3134,1 49434U 21104AC  24232.06765321  .00003842  00000-0  25931-3 0  9995,2 49434  53.2141 257.4312 0001348  86.7501 273.3645 15.08845439154028,6917.864,95.437,540.661,538.796,0.0
49434.0,STARLINK-3134,PAYLOAD,2024-08-19 07:58:57,15.08838545,0.0001255,53.214,256.2419,94.2108,265.9027,9.1277e-05,1.165e-05,0.0,0 STARLINK-3134,1 49434U 21104AC  24232.33261536  .00001165  00000-0  91277-4 0  9997,2 49434  53.2140 256.2419 0001255  94.2108 265.9027 15.08838545154061,6917.885,95.438,540.618,538.882,0.0
49434.0,STARLINK-3134,PAYLOAD,2024-08-20 06:14:21,15.08850012,0.0001272,53.2143,252.0784,93.1808,266.9329,0.00011671,1.571e-05,0.0,0 STARLINK-3134,1 49434U 21104AC  24233.25996910  .00001571  00000-0  11671-3 0  9990,2 49434  53.2143 252.0784 0001272  93.1808 266.9329 15.08850012154202,6917.85,95.437,540.595,538.835,0.0
49434.0,STARLINK-3134,PAYLOAD,2024-08-20 12:35:53,15.08852886,0.0001293,53.2142,250.8889,92.2233,267.8907,0.00015359,2.158e-05,0.0,0 STARLINK-3134,1 49434U 21104AC  24233.52492613  .00002158  00000-0  15359-3 0  9990,2 49434  53.2142 250.8889 0001293  92.2233 267.8907 15.08852886154245,6917.841,95.437,540.6,538.812,0.0
49434.0,STARLINK-3134,PAYLOAD,2024-08-21 04:29:45,15.08835498,0.0001443,53.2154,247.9146,98.9129,261.2026,6.7619e-05,7.88e-06,0.0,0 STARLINK-3134,1 49434U 21104AC  24234.18733525  .00000788  00000-0  67619-4 0  9997,2 49434  53.2154 247.9146 0001443  98.9129 261.2026 15.08835498154346,6917.894,95.438,540.757,538.761,0.0
49434.0,STARLINK-3134,PAYLOAD,2024-08-21 07:40:32,15.08834085,0.0001275,53.2149,247.3198,94.4433,265.6705,4.5514e-05,4.36e-06,0.0,0 STARLINK-3134,1 49434U 21104AC  24234.31981643  .00000436  00000-0  45514-4 0  9998,2 49434  53.2149 247.3198 0001275  94.4433 265.6705 15.08834085154368,6917.898,95.438,540.646,538.881,0.0
